"{\n    \"CCSDS_OMM_VERS\": \"2.0\",\n    \"COMMENT\": \"GENERATED VIA SPACE-TRACK.ORG API\",\n    \"CREATION_DATE\": \"2025-08-29T02:15:49\",\n    \"ORIGINATOR\": \"18 SPCS\",\n    \"OBJECT_NAME\": \"GALILEO 8 (264)\",\n    \"OBJECT_ID\": \"2015-017B\",\n    \"CENTER_NAME\": \"EARTH\",\n    \"REF_FRAME\": \"TEME\",\n    \"TIME_SYSTEM\": \"UTC\",\n    \"MEAN_ELEMENT_THEORY\": \"SGP4\",\n    \"EPOCH\": \"2025-08-28T04:13:32.582784\",\n    \"MEAN_MOTION\": \"1.7047589259\",\n    \"ECCENTRICITY\": \"0.00041240336\",\n    \"INCLINATION\": \"56.879415\",\n    \"RA_OF_ASC_NODE\": \"349.60332\",\n    \"ARG_OF_PERICENTER\": \"229.58185\",\n    \"MEAN_ANOMALY\": \"130.40282\",\n    \"EPHEMERIS_TYPE\": \"0\",\n    \"CLASSIFICATION_TYPE\": \"U\",\n    \"NORAD_CAT_ID\": \"40545\",\n    \"ELEMENT_SET_NO\": \"999\",\n    \"REV_AT_EPOCH\": \"2725\",\n    \"BSTAR\": \"0\",\n    \"MEAN_MOTION_DOT\": \"-0.000001039538\",\n    \"MEAN_MOTION_DDOT\": \"0\",\n    \"TLE_LINE0\": \"0 GALILEO 8 (264)\",\n    \"TLE_LINE1\": \"1 40545U 15017B   25240.17607156 -.00000104  00000-0  00000-0 0  9994\",\n    \"TLE_LINE2\": \"2 40545  56.8794 349.6033 0004124 229.5819 130.4028  1.70475893 27252\",\n    \"SEMIMAJOR_AXIS\": \"29600.101\",\n    \"PERIOD\": \"844.694\",\n    \"APOAPSIS\": \"23234.173\",\n    \"PERIAPSIS\": \"23209.759\",\n    \"OBJECT_TYPE\": \"PAYLOAD\",\n    \"DECAYED\": \"0\"\n}"